OBJECT_NAME,OBJECT_ID,EPOCH,MEAN_MOTION,ECCENTRICITY,INCLINATION,RA_OF_ASC_NODE,ARG_OF_PERICENTER,MEAN_ANOMALY,EPHEMERIS_TYPE,CLASSIFICATION_TYPE,NORAD_CAT_ID,ELEMENT_SET_NO,REV_AT_EPOCH,BSTAR,MEAN_MOTION_DOT,MEAN_MOTION_DDOT
LEMUR-2-ALISIA,2025-009DB,2026-06-16T17:40:00.482016,15.02764457,.00019676,97.6956,249.9090,191.4316,168.6864,0,U,62706,999,10009,.44305551E-3,.5865E-4,0
LEMUR-2-ROUNDTRIPPER,2025-009DG,2026-06-17T07:02:28.171104,15.03794198,.00053752,97.7257,250.9723,130.2402,229.9295,0,U,62711,999,7764,.5004177E-3,.6819E-4,0
LEMUR-2-MYNAMEISJEFF,2025-009DH,2026-06-17T03:48:32.570784,15.03798285,.000358,97.7304,251.2189,151.3935,208.7488,0,U,62712,999,7762,.464112E-3,.6319E-4,0
LEMUR-2-LEIA-PHILIP,2025-052AN,2026-06-17T14:30:12.640608,14.97320289,.00026,97.6839,60.5485,208.5655,151.5425,0,U,63246,999,6873,.6118567E-4,.652E-5,0
LEMUR-2-LIA-MARTIN,2025-052AQ,2026-06-17T14:37:18.009408,14.97806214,.00029338,97.6893,61.0291,156.3429,203.7929,0,U,63248,999,6874,.24377685E-3,.2806E-4,0
LEMUR-2-DELOITTE-1,2025-052BB,2026-06-17T12:27:10.321344,14.97606899,.00034192,97.6921,61.2684,96.4459,263.7152,0,U,63259,999,6874,.32888778E-3,.3787E-4,0
LEMUR-2-EMERSONROSE,2025-052BD,2026-06-17T07:02:35.554848,14.99079589,.00017524,97.6884,61.6057,68.0465,292.0944,0,U,63261,999,6875,.22947741E-3,.2727E-4,0
LEMUR-2-MARACHE-FRAN,2025-052BE,2026-06-17T14:27:13.526496,15.00105457,.00053462,97.6940,62.2277,21.3677,338.7769,0,U,63262,999,6882,.33458863E-3,.4114E-4,0
LEMUR-2-THEFALCONER,2025-052BG,2026-06-17T14:41:26.729952,14.97390796,.00025956,97.6859,60.9808,32.2033,327.9347,0,U,63264,999,6875,.20490254E-3,.2324E-4,0
LEMUR-2-UNTITLED-SC,2025-061A,2026-06-17T13:14:09.962016,15.13478282,.00169597,97.5635,143.9105,263.1461,96.7840,0,U,63351,999,6764,.19543541E-3,.3441E-4,0
LEMUR-2-ESPERANZA,2025-061B,2026-06-17T11:06:00.491616,15.13572861,.00164908,97.5644,143.9159,262.7680,97.1676,0,U,63352,999,6763,.17515946E-3,.3084E-4,0
LEMUR-2-KREMPEL-BRO2,2025-061C,2026-06-17T11:44:44.439936,15.14007853,.00175226,97.5690,144.4761,254.3944,105.5353,0,U,63353,999,6765,.18971408E-3,.3389E-4,0
LEMUR-2-THERMORAPTOR,2025-061D,2026-06-17T14:29:13.797024,15.14089419,.00172031,97.5697,144.6655,252.6757,107.2592,0,U,63354,999,6767,.19376028E-3,.347E-4,0
LEMUR-2-NEUROSPICY,2025-061E,2026-06-17T13:48:23.622624,15.14203641,.00150311,97.5624,144.2631,256.6555,103.3001,0,U,63355,999,6767,.16432932E-3,.294E-4,0
LEMUR-2-TILLINFINITY,2025-061F,2026-06-17T11:28:42.693024,15.14789899,.00163864,97.5607,144.4573,243.8467,116.1080,0,U,63356,999,6768,.20824704E-3,.3809E-4,0
LEMUR-2-KREMPEL-BRO1,2025-061G,2026-06-17T10:50:33.716832,15.14594749,.00169763,97.5610,144.3472,245.4775,114.4687,0,U,63357,999,6767,.15695404E-3,.2839E-4,0
LEMUR-2-LANGER2SPACE,2025-061H,2026-06-17T11:28:48.452448,15.14291464,.00149621,97.5614,144.1874,255.2164,104.7410,0,U,63358,999,6766,.20298273E-3,.3657E-4,0
LEMUR-2-BALTO,2025-052BH,2026-06-17T12:29:07.794240,15.00090169,.00069096,97.6897,62.1246,56.9292,303.2594,0,U,63395,999,6881,.39594099E-3,.4879E-4,0
LEMUR-2-KRISH,2025-135AK,2026-06-16T20:58:09.569568,14.96207333,.0001766,97.7754,282.7517,99.8626,260.2794,0,U,64561,999,5387,.42604658E-3,.4747E-4,0
LEMUR-2-HUBBLE-4,2025-135AP,2026-06-17T01:39:53.438400,14.93197861,.00009647,97.7699,281.9767,308.5326,51.5807,0,U,64565,999,5385,.14733269E-3,.1482E-4,0
LEMUR-2-SEJONG-2,2025-135BL,2026-06-17T13:44:10.895712,14.96698272,.00038071,97.7688,283.5904,337.1820,22.9231,0,U,64586,999,5400,.28325801E-3,.3176E-4,0
LEMUR-2-HUBBLE-5,2025-135BT,2026-06-17T13:25:20.513280,14.94136762,.00050584,97.7719,283.0952,352.6695,7.4450,0,U,64840,999,5396,.92292185E-4,.93E-5,0
LEMUR-2-KARENDARRELL,2025-135BU,2026-06-17T07:38:20.120352,15.00111435,.00096884,97.7684,284.5256,201.5473,158.5344,0,U,64841,999,5403,.48254654E-3,.5965E-4,0
LEMUR-2-LUCILLE-ROSE,2025-135BV,2026-06-17T07:00:28.186560,15.00154719,.00112696,97.7770,284.5194,282.5666,77.4297,0,U,65403,999,4865,.38974509E-3,.4812E-4,0
LEMUR-2-AFFIE-WAUWIE,2025-248C,2026-06-16T03:21:25.708032,15.27115158,.00075209,45.3895,120.6606,77.2231,282.9498,0,U,66295,999,3443,.50637182E-3,.13448E-3,0
LEMUR-2-DEANANDMAEVE,2025-276N,2026-06-17T10:42:45.736416,15.19735426,.0005694,97.4210,241.9176,13.8580,346.2811,0,U,66678,999,3045,.2316437E-3,.4885E-4,0
LEMUR-2-STAS-GORBUK,2025-276W,2026-06-17T03:09:33.391872,15.19381149,.0005087,97.4247,241.6633,16.0067,344.1327,0,U,66686,999,3040,.20761288E-3,.4325E-4,0
LEMUR-2-TEODOR,2025-276DG,2026-06-17T10:39:57.069792,15.21052231,.0002149,97.4152,242.2073,116.5925,243.5531,0,U,66768,999,3048,.1993366E-3,.4358E-4,0
LEMUR-2-LAILA,2025-276DQ,2026-06-17T03:43:27.836256,15.21271363,.00022268,97.4175,242.0432,135.7815,224.3599,0,U,66776,999,3044,.2218817E-3,.489E-4,0
